[{"OBJECT_NAME":"VSP RF C1","OBJECT_ID":"2024-043AQ","EPOCH":"2026-03-09T21:56:05.358624","MEAN_MOTION":15.29409663,"ECCENTRICITY":0.00093965,"INCLINATION":97.5441,"RA_OF_ASC_NODE":205.1792,"ARG_OF_PERICENTER":219.6172,"MEAN_ANOMALY":140.4382,"EPHEMERIS_TYPE":0,"CLASSIFICATION_TYPE":"U","NORAD_CAT_ID":59136,"ELEMENT_SET_NO":999,"REV_AT_EPOCH":11190,"BSTAR":0.00026222052,"MEAN_MOTION_DOT":7.409e-5,"MEAN_MOTION_DDOT":0},{"OBJECT_NAME":"STARLINK-32325","OBJECT_ID":"2024-187Q","EPOCH":"2026-03-09T23:07:32.792736","MEAN_MOTION":15.30182683,"ECCENTRICITY":0.00012693,"INCLINATION":53.1623,"RA_OF_ASC_NODE":63.8974,"ARG_OF_PERICENTER":106.8064,"MEAN_ANOMALY":253.3076,"EPHEMERIS_TYPE":0,"CLASSIFICATION_TYPE":"U","NORAD_CAT_ID":61588,"ELEMENT_SET_NO":999,"REV_AT_EPOCH":7912,"BSTAR":7.785353e-6,"MEAN_MOTION_DOT":-1.29e-6,"MEAN_MOTION_DDOT":0}]
